OBJECT_NAME,OBJECT_ID,EPOCH,MEAN_MOTION,ECCENTRICITY,INCLINATION,RA_OF_ASC_NODE,ARG_OF_PERICENTER,MEAN_ANOMALY,EPHEMERIS_TYPE,CLASSIFICATION_TYPE,NORAD_CAT_ID,ELEMENT_SET_NO,REV_AT_EPOCH,BSTAR,MEAN_MOTION_DOT,MEAN_MOTION_DDOT
IONOSFERA-M 2,2024-199B,2026-07-14T22:28:23.962944,14.22762471,.00004936,98.7134,68.7213,123.9258,236.1967,0,U,61736,999,13477,.32466625E-4,.29E-6,0
PRSC-EO1,2025-012A,2026-07-14T22:46:57.349632,15.17619243,.00067434,97.4219,267.8648,147.1340,213.0314,0,U,62725,999,8240,.21014536E-3,.4162E-4,0
BIOMASS,2025-090A,2026-07-14T12:19:40.319904,14.67537026,.00014457,98.0749,22.4296,96.9209,263.2160,0,U,63772,999,6469,.56506881E-4,.272E-5,0
GOSAT-GW (IBUKI GW),2025-141A,2026-07-15T00:11:47.178816,14.67553979,.00014324,98.0565,132.8732,85.2231,274.9137,0,U,64694,999,5592,.29562027E-4,.12E-5,0
IONOSFERA-M 3,2025-155A,2026-07-14T23:29:40.479072,14.21490782,.00022825,98.6040,157.1867,112.8161,247.3258,0,U,64876,999,5035,.19114727E-4,-.1E-7,0
IONOSFERA-M 4,2025-155B,2026-07-14T22:38:25.099584,14.21493234,.00018219,98.6039,157.0692,100.0873,260.0510,0,U,64877,999,5034,.20144618E-4,.1E-7,0
MICROCARB,2025-156A,2026-07-14T19:16:34.799520,14.72884852,.00175896,98.0075,272.5108,171.9650,188.1842,0,U,64899,999,5203,.48268732E-4,.259E-5,0
CO3D 3,2025-156B,2026-07-14T21:34:35.705568,15.20190498,.00017716,97.4338,274.1936,93.9851,266.1587,0,U,64900,999,5374,.11350727E-3,.239E-4,0
CO3D 4,2025-156C,2026-07-14T21:34:49.017216,15.20208830,.00016323,97.4336,274.1938,154.3697,205.7620,0,U,64901,999,5374,.34043162E-4,.67E-5,0
CO3D 2,2025-156D,2026-07-14T20:46:48.341856,15.20199949,.00012384,97.4337,274.0596,88.7003,271.4374,0,U,64902,999,5373,.10637994E-3,.2236E-4,0
CO3D 1,2025-156E,2026-07-14T20:47:01.624992,15.20199856,.00012811,97.4336,274.0598,100.1495,259.9885,0,U,64903,999,5373,.10959991E-3,.2306E-4,0
PRSC-S1,2025-164A,2026-07-14T23:23:03.948000,15.06634026,.00066815,41.1298,131.2893,196.6459,163.4137,0,U,65055,999,5262,.1608244E-3,.2249E-4,0
SENTINEL-6B,2025-264A,2026-07-14T21:08:26.647872,12.80930149,.00078459,66.0413,77.6596,268.6787,91.3330,0,U,66514,999,3071,.75316104E-4,-.44E-6,0
CAS500-3,2025-274F,2026-07-14T18:42:22.710528,14.88383181,.0006266,97.7437,123.2031,39.4856,320.6817,0,U,66655,999,3425,.68257762E-4,.579E-5,0
CSG-3,2026-001A,2026-07-13T12:40:32.844288,14.82151371,.00015181,97.8894,17.7492,93.3222,266.8165,0,U,67304,999,2836,.2348529E-4,.135E-5,0
PRSC-E03,2026-092A,2026-07-14T16:35:19.475232,15.06807853,.00048752,38.0016,287.4793,248.1073,111.9171,0,U,68835,999,1210,.90593221E-4,.1265E-4,0
CAS500-2,2026-100AK,2026-07-14T17:19:38.039520,15.20898856,.0007846,97.3871,93.0552,294.2502,65.7914,0,U,69013,999,1099,.16337256E-3,.3545E-4,0
