IONOSFERA-M 2           
1 61736U 24199B   26195.93638846  .00000029  00000+0  32467-4 0  9994
2 61736  98.7134  68.7213 0000493 123.9258 236.1967 14.22762471134772
PRSC-EO1                
1 62725U 25012A   26195.94927488  .00004162  00000+0  21015-3 0  9990
2 62725  97.4219 267.8648 0006743 147.1340 213.0314 15.17619243 82404
BIOMASS                 
1 63772U 25090A   26195.51366111  .00000272  00000+0  56507-4 0  9995
2 63772  98.0749  22.4296 0001445  96.9209 263.2160 14.67537026 64694
GOSAT-GW (IBUKI GW)     
1 64694U 25141A   26196.00818494  .00000120  00000+0  29562-4 0  9990
2 64694  98.0565 132.8732 0001432  85.2231 274.9137 14.67553979 55921
IONOSFERA-M 3           
1 64876U 25155A   26195.97894073 -.00000001  00000+0  19115-4 0  9991
2 64876  98.6040 157.1867 0002282 112.8161 247.3258 14.21490782 50351
IONOSFERA-M 4           
1 64877U 25155B   26195.94334606  .00000001  00000+0  20145-4 0  9994
2 64877  98.6039 157.0692 0001821 100.0873 260.0510 14.21493234 50349
MICROCARB               
1 64899U 25156A   26195.80318055  .00000259  00000+0  48269-4 0  9996
2 64899  98.0075 272.5108 0017589 171.9650 188.1842 14.72884852 52032
CO3D 3                  
1 64900U 25156B   26195.89902437  .00002390  00000+0  11351-3 0  9990
2 64900  97.4338 274.1936 0001771  93.9851 266.1587 15.20190498 53741
CO3D 4                  
1 64901U 25156C   26195.89917844  .00000670  00000+0  34043-4 0  9992
2 64901  97.4336 274.1938 0001632 154.3697 205.7620 15.20208830 53745
CO3D 2                  
1 64902U 25156D   26195.86583729  .00002236  00000+0  10638-3 0  9994
2 64902  97.4337 274.0596 0001238  88.7003 271.4374 15.20199949 53734
CO3D 1                  
1 64903U 25156E   26195.86599103  .00002306  00000+0  10960-3 0  9994
2 64903  97.4336 274.0598 0001281 100.1495 259.9885 15.20199856 53733
PRSC-S1                 
1 65055U 25164A   26195.97435125  .00002249  00000+0  16082-3 0  9994
2 65055  41.1298 131.2893 0006681 196.6459 163.4137 15.06634026 52629
SENTINEL-6B             
1 66514U 25264A   26195.88086398 -.00000044  00000+0  75316-4 0  9998
2 66514  66.0413  77.6596 0007845 268.6787  91.3330 12.80930149 30719
CAS500-3                
1 66655U 25274F   26195.77942952  .00000579  00000+0  68258-4 0  9999
2 66655  97.7437 123.2031 0006266  39.4856 320.6817 14.88383181 34250
CSG-3                   
1 67304U 26001A   26194.52815792  .00000135  00000+0  23485-4 0  9994
2 67304  97.8894  17.7492 0001518  93.3222 266.8165 14.82151371 28369
PRSC-E03                
1 68835U 26092A   26195.69119763  .00001265  00000+0  90593-4 0  9997
2 68835  38.0016 287.4793 0004875 248.1073 111.9171 15.06807853 12107
CAS500-2                
1 69013U 26100AK  26195.72196805  .00003545  00000+0  16337-3 0  9998
2 69013  97.3871  93.0552 0007846 294.2502  65.7914 15.20898856 10992
